<?xml version="1.0" encoding="UTF-8"?>
<ndm xmlns:xsi="http://www.w3.org/2001/XMLSchema-instance" xsi:noNamespaceSchemaLocation="https://sanaregistry.org/r/ndmxml_unqualified/ndmxml-2.0.0-master-2.0.xsd">
<omm id="CCSDS_OMM_VERS" version="2.0">
<header><CREATION_DATE/><ORIGINATOR/></header><body><segment><metadata><OBJECT_NAME>ORBCOMM FM103</OBJECT_NAME><OBJECT_ID>2014-040F</OBJECT_ID><CENTER_NAME>EARTH</CENTER_NAME><REF_FRAME>TEME</REF_FRAME><TIME_SYSTEM>UTC</TIME_SYSTEM><MEAN_ELEMENT_THEORY>SGP4</MEAN_ELEMENT_THEORY></metadata><data><meanElements><EPOCH>2025-08-25T14:15:50.214816</EPOCH><MEAN_MOTION>14.58256365</MEAN_MOTION><ECCENTRICITY>.00022307</ECCENTRICITY><INCLINATION>47.0058</INCLINATION><RA_OF_ASC_NODE>49.9989</RA_OF_ASC_NODE><ARG_OF_PERICENTER>240.3685</ARG_OF_PERICENTER><MEAN_ANOMALY>119.6979</MEAN_ANOMALY></meanElements><tleParameters><EPHEMERIS_TYPE>0</EPHEMERIS_TYPE><CLASSIFICATION_TYPE>U</CLASSIFICATION_TYPE><NORAD_CAT_ID>40091</NORAD_CAT_ID><ELEMENT_SET_NO>999</ELEMENT_SET_NO><REV_AT_EPOCH>57423</REV_AT_EPOCH><BSTAR>.14132652E-3</BSTAR><MEAN_MOTION_DOT>.489E-5</MEAN_MOTION_DOT><MEAN_MOTION_DDOT>0</MEAN_MOTION_DDOT></tleParameters></data></segment></body></omm>
<omm id="CCSDS_OMM_VERS" version="2.0">
<header><CREATION_DATE/><ORIGINATOR/></header><body><segment><metadata><OBJECT_NAME>ORBCOMM FM114</OBJECT_NAME><OBJECT_ID>2015-081A</OBJECT_ID><CENTER_NAME>EARTH</CENTER_NAME><REF_FRAME>TEME</REF_FRAME><TIME_SYSTEM>UTC</TIME_SYSTEM><MEAN_ELEMENT_THEORY>SGP4</MEAN_ELEMENT_THEORY></metadata><data><meanElements><EPOCH>2025-08-25T13:05:18.417120</EPOCH><MEAN_MOTION>14.58297918</MEAN_MOTION><ECCENTRICITY>.00028052</ECCENTRICITY><INCLINATION>47.0040</INCLINATION><RA_OF_ASC_NODE>319.2418</RA_OF_ASC_NODE><ARG_OF_PERICENTER>290.3359</ARG_OF_PERICENTER><MEAN_ANOMALY>69.7225</MEAN_ANOMALY></meanElements><tleParameters><EPHEMERIS_TYPE>0</EPHEMERIS_TYPE><CLASSIFICATION_TYPE>U</CLASSIFICATION_TYPE><NORAD_CAT_ID>41179</NORAD_CAT_ID><ELEMENT_SET_NO>999</ELEMENT_SET_NO><REV_AT_EPOCH>51459</REV_AT_EPOCH><BSTAR>.12351051E-3</BSTAR><MEAN_MOTION_DOT>.406E-5</MEAN_MOTION_DOT><MEAN_MOTION_DDOT>0</MEAN_MOTION_DDOT></tleParameters></data></segment></body></omm>
<omm id="CCSDS_OMM_VERS" version="2.0">
<header><CREATION_DATE/><ORIGINATOR/></header><body><segment><metadata><OBJECT_NAME>ORBCOMM FM119</OBJECT_NAME><OBJECT_ID>2015-081B</OBJECT_ID><CENTER_NAME>EARTH</CENTER_NAME><REF_FRAME>TEME</REF_FRAME><TIME_SYSTEM>UTC</TIME_SYSTEM><MEAN_ELEMENT_THEORY>SGP4</MEAN_ELEMENT_THEORY></metadata><data><meanElements><EPOCH>2025-08-25T07:56:42.561888</EPOCH><MEAN_MOTION>14.58226727</MEAN_MOTION><ECCENTRICITY>.00015864</ECCENTRICITY><INCLINATION>46.9990</INCLINATION><RA_OF_ASC_NODE>229.5852</RA_OF_ASC_NODE><ARG_OF_PERICENTER>325.8371</ARG_OF_PERICENTER><MEAN_ANOMALY>34.2412</MEAN_ANOMALY></meanElements><tleParameters><EPHEMERIS_TYPE>0</EPHEMERIS_TYPE><CLASSIFICATION_TYPE>U</CLASSIFICATION_TYPE><NORAD_CAT_ID>41180</NORAD_CAT_ID><ELEMENT_SET_NO>999</ELEMENT_SET_NO><REV_AT_EPOCH>51581</REV_AT_EPOCH><BSTAR>.13318362E-3</BSTAR><MEAN_MOTION_DOT>.451E-5</MEAN_MOTION_DOT><MEAN_MOTION_DDOT>0</MEAN_MOTION_DDOT></tleParameters></data></segment></body></omm>
<omm id="CCSDS_OMM_VERS" version="2.0">
<header><CREATION_DATE/><ORIGINATOR/></header><body><segment><metadata><OBJECT_NAME>ORBCOMM FM105</OBJECT_NAME><OBJECT_ID>2015-081C</OBJECT_ID><CENTER_NAME>EARTH</CENTER_NAME><REF_FRAME>TEME</REF_FRAME><TIME_SYSTEM>UTC</TIME_SYSTEM><MEAN_ELEMENT_THEORY>SGP4</MEAN_ELEMENT_THEORY></metadata><data><meanElements><EPOCH>2025-08-25T06:51:05.840928</EPOCH><MEAN_MOTION>14.45264543</MEAN_MOTION><ECCENTRICITY>.00027451</ECCENTRICITY><INCLINATION>47.0001</INCLINATION><RA_OF_ASC_NODE>241.4698</RA_OF_ASC_NODE><ARG_OF_PERICENTER>271.8665</ARG_OF_PERICENTER><MEAN_ANOMALY>88.1901</MEAN_ANOMALY></meanElements><tleParameters><EPHEMERIS_TYPE>0</EPHEMERIS_TYPE><CLASSIFICATION_TYPE>U</CLASSIFICATION_TYPE><NORAD_CAT_ID>41181</NORAD_CAT_ID><ELEMENT_SET_NO>999</ELEMENT_SET_NO><REV_AT_EPOCH>51074</REV_AT_EPOCH><BSTAR>.8200911E-4</BSTAR><MEAN_MOTION_DOT>.133E-5</MEAN_MOTION_DOT><MEAN_MOTION_DDOT>0</MEAN_MOTION_DDOT></tleParameters></data></segment></body></omm>
<omm id="CCSDS_OMM_VERS" version="2.0">
<header><CREATION_DATE/><ORIGINATOR/></header><body><segment><metadata><OBJECT_NAME>ORBCOMM FM110</OBJECT_NAME><OBJECT_ID>2015-081D</OBJECT_ID><CENTER_NAME>EARTH</CENTER_NAME><REF_FRAME>TEME</REF_FRAME><TIME_SYSTEM>UTC</TIME_SYSTEM><MEAN_ELEMENT_THEORY>SGP4</MEAN_ELEMENT_THEORY></metadata><data><meanElements><EPOCH>2025-08-24T22:06:19.361088</EPOCH><MEAN_MOTION>14.58303037</MEAN_MOTION><ECCENTRICITY>.00024273</ECCENTRICITY><INCLINATION>47.0031</INCLINATION><RA_OF_ASC_NODE>321.7304</RA_OF_ASC_NODE><ARG_OF_PERICENTER>180.5696</ARG_OF_PERICENTER><MEAN_ANOMALY>179.5187</MEAN_ANOMALY></meanElements><tleParameters><EPHEMERIS_TYPE>0</EPHEMERIS_TYPE><CLASSIFICATION_TYPE>U</CLASSIFICATION_TYPE><NORAD_CAT_ID>41182</NORAD_CAT_ID><ELEMENT_SET_NO>999</ELEMENT_SET_NO><REV_AT_EPOCH>51437</REV_AT_EPOCH><BSTAR>.1795458E-3</BSTAR><MEAN_MOTION_DOT>.668E-5</MEAN_MOTION_DOT><MEAN_MOTION_DDOT>0</MEAN_MOTION_DDOT></tleParameters></data></segment></body></omm>
<omm id="CCSDS_OMM_VERS" version="2.0">
<header><CREATION_DATE/><ORIGINATOR/></header><body><segment><metadata><OBJECT_NAME>ORBCOMM FM118</OBJECT_NAME><OBJECT_ID>2015-081E</OBJECT_ID><CENTER_NAME>EARTH</CENTER_NAME><REF_FRAME>TEME</REF_FRAME><TIME_SYSTEM>UTC</TIME_SYSTEM><MEAN_ELEMENT_THEORY>SGP4</MEAN_ELEMENT_THEORY></metadata><data><meanElements><EPOCH>2025-08-25T13:40:21.883872</EPOCH><MEAN_MOTION>14.58288812</MEAN_MOTION><ECCENTRICITY>.00021113</ECCENTRICITY><INCLINATION>47.0052</INCLINATION><RA_OF_ASC_NODE>318.9155</RA_OF_ASC_NODE><ARG_OF_PERICENTER>130.3793</ARG_OF_PERICENTER><MEAN_ANOMALY>229.7277</MEAN_ANOMALY></meanElements><tleParameters><EPHEMERIS_TYPE>0</EPHEMERIS_TYPE><CLASSIFICATION_TYPE>U</CLASSIFICATION_TYPE><NORAD_CAT_ID>41183</NORAD_CAT_ID><ELEMENT_SET_NO>999</ELEMENT_SET_NO><REV_AT_EPOCH>51457</REV_AT_EPOCH><BSTAR>.14998646E-3</BSTAR><MEAN_MOTION_DOT>.53E-5</MEAN_MOTION_DOT><MEAN_MOTION_DDOT>0</MEAN_MOTION_DDOT></tleParameters></data></segment></body></omm>
<omm id="CCSDS_OMM_VERS" version="2.0">
<header><CREATION_DATE/><ORIGINATOR/></header><body><segment><metadata><OBJECT_NAME>ORBCOMM FM112</OBJECT_NAME><OBJECT_ID>2015-081F</OBJECT_ID><CENTER_NAME>EARTH</CENTER_NAME><REF_FRAME>TEME</REF_FRAME><TIME_SYSTEM>UTC</TIME_SYSTEM><MEAN_ELEMENT_THEORY>SGP4</MEAN_ELEMENT_THEORY></metadata><data><meanElements><EPOCH>2025-08-25T13:50:34.854720</EPOCH><MEAN_MOTION>14.58332470</MEAN_MOTION><ECCENTRICITY>.00024723</ECCENTRICITY><INCLINATION>46.9976</INCLINATION><RA_OF_ASC_NODE>227.5156</RA_OF_ASC_NODE><ARG_OF_PERICENTER>296.3623</ARG_OF_PERICENTER><MEAN_ANOMALY>63.7008</MEAN_ANOMALY></meanElements><tleParameters><EPHEMERIS_TYPE>0</EPHEMERIS_TYPE><CLASSIFICATION_TYPE>U</CLASSIFICATION_TYPE><NORAD_CAT_ID>41184</NORAD_CAT_ID><ELEMENT_SET_NO>999</ELEMENT_SET_NO><REV_AT_EPOCH>51579</REV_AT_EPOCH><BSTAR>.15840878E-3</BSTAR><MEAN_MOTION_DOT>.57E-5</MEAN_MOTION_DOT><MEAN_MOTION_DDOT>0</MEAN_MOTION_DDOT></tleParameters></data></segment></body></omm>
<omm id="CCSDS_OMM_VERS" version="2.0">
<header><CREATION_DATE/><ORIGINATOR/></header><body><segment><metadata><OBJECT_NAME>ORBCOMM FM113</OBJECT_NAME><OBJECT_ID>2015-081G</OBJECT_ID><CENTER_NAME>EARTH</CENTER_NAME><REF_FRAME>TEME</REF_FRAME><TIME_SYSTEM>UTC</TIME_SYSTEM><MEAN_ELEMENT_THEORY>SGP4</MEAN_ELEMENT_THEORY></metadata><data><meanElements><EPOCH>2025-08-25T13:17:16.950624</EPOCH><MEAN_MOTION>14.58329957</MEAN_MOTION><ECCENTRICITY>.00021777</ECCENTRICITY><INCLINATION>46.9993</INCLINATION><RA_OF_ASC_NODE>227.9604</RA_OF_ASC_NODE><ARG_OF_PERICENTER>305.1074</ARG_OF_PERICENTER><MEAN_ANOMALY>54.9607</MEAN_ANOMALY></meanElements><tleParameters><EPHEMERIS_TYPE>0</EPHEMERIS_TYPE><CLASSIFICATION_TYPE>U</CLASSIFICATION_TYPE><NORAD_CAT_ID>41185</NORAD_CAT_ID><ELEMENT_SET_NO>999</ELEMENT_SET_NO><REV_AT_EPOCH>51577</REV_AT_EPOCH><BSTAR>.17954917E-3</BSTAR><MEAN_MOTION_DOT>.669E-5</MEAN_MOTION_DOT><MEAN_MOTION_DDOT>0</MEAN_MOTION_DDOT></tleParameters></data></segment></body></omm>

</ndm>
