ORBCOMM FM103           
1 40091U 14040F   25237.59433119  .00000489  00000+0  14133-3 0  9992
2 40091  47.0058  49.9989 0002230 240.3685 119.6979 14.58256365574231
ORBCOMM FM114           
1 41179U 15081A   25237.54535205  .00000406  00000+0  12351-3 0  9999
2 41179  47.0040 319.2418 0002805 290.3359  69.7225 14.58297918514592
ORBCOMM FM119           
1 41180U 15081B   25237.33104817  .00000451  00000+0  13318-3 0  9993
2 41180  46.9990 229.5852 0001586 325.8371  34.2412 14.58226727515815
ORBCOMM FM105           
1 41181U 15081C   25237.28548427  .00000133  00000+0  82009-4 0  9998
2 41181  47.0001 241.4698 0002745 271.8665  88.1901 14.45264543510748
ORBCOMM FM110           
1 41182U 15081D   25236.92105742  .00000668  00000+0  17955-3 0  9998
2 41182  47.0031 321.7304 0002427 180.5696 179.5187 14.58303037514375
ORBCOMM FM118           
1 41183U 15081E   25237.56969773  .00000530  00000+0  14999-3 0  9995
2 41183  47.0052 318.9155 0002111 130.3793 229.7277 14.58288812514575
ORBCOMM FM112           
1 41184U 15081F   25237.57679230  .00000570  00000+0  15841-3 0  9994
2 41184  46.9976 227.5156 0002472 296.3623  63.7008 14.58332470515793
ORBCOMM FM113           
1 41185U 15081G   25237.55366841  .00000669  00000+0  17955-3 0  9991
2 41185  46.9993 227.9604 0002177 305.1074  54.9607 14.58329957515777
